STARLINK-35731          
1 66228U 25244Y   25326.39245925  .00093745  00000+0  16730-2 0  9994
2 66228  53.1602  11.7107 0001227  99.5733 260.5415 15.49316883  5183
STARLINK-35758          
1 66229U 25244Z   25326.39211719  .00068879  00000+0  12346-2 0  9998
2 66229  53.1602  11.7088 0001120  82.2050 277.9086 15.49332217  5180
STARLINK-35736          
1 66230U 25244AA  25326.45628388  .00092603  00000+0  16521-2 0  9992
2 66230  53.1601  11.3975 0001434  62.6397 297.4758 15.49331379  5198
STARLINK-35735          
1 66231U 25244AB  25326.39141765  .00084744  00000+0  15156-2 0  9995
2 66231  53.1602  11.7039 0002423 149.9709 210.1439 15.49301805  5188
STARLINK-35753          
1 66232U 25244AC  25326.39108819  .00070673  00000+0  12664-2 0  9996
2 66232  53.1603  11.7024 0001114  64.1058 296.0066 15.49328444  5182
STARLINK-35626          
1 66233U 25244AD  25326.39074325  .00073219  00000+0  13110-2 0  9997
2 66233  53.1603  11.6999 0001150  79.7357 280.3782 15.49334651  5185
STARLINK-35537          
1 66234U 25245A   25326.66670139 -.02047452  00000+0 -49832-1 0  9997
2 66234  53.1607  64.2878 0001030  63.1254 333.7236 15.43943450  4879
STARLINK-35541          
1 66235U 25245B   25326.66670139 -.02040985  00000+0 -49680-1 0  9993
2 66235  53.1608  64.2832 0000929  72.6292 326.0920 15.43929669  4820
STARLINK-35454          
1 66236U 25245C   25326.66670139 -.02034873  00000+0 -44881-1 0  9991
2 66236  53.1602  64.2608 0000714  91.5737 318.0532 15.46775092  4712
STARLINK-35557          
1 66237U 25245D   25326.66670139 -.02048088  00000+0 -45213-1 0  9995
2 66237  53.1604  64.2569 0001006  54.7837 356.7330 15.46769808  4878
STARLINK-35556          
1 66238U 25245E   25326.66670139 -.01966186  00000+0 -39147-1 0  9992
2 66238  53.1608  64.2471 0000934  69.0803 346.9063 15.49561272  4878
STARLINK-35554          
1 66239U 25245F   25326.66670139 -.01960256  00000+0 -39030-1 0  9996
2 66239  53.1607  64.2431 0001146  51.0838   6.8224 15.49548849  4718
