CCSDS_OMM_VERS = 2.0
CREATION_DATE  = 
ORIGINATOR     = 

OBJECT_NAME    = STARLINK-35731
OBJECT_ID      = 2025-244Y
CENTER_NAME    = EARTH
REF_FRAME      = TEME
TIME_SYSTEM    = UTC
MEAN_ELEMENT_THEORY = SGP/SGP4

EPOCH          = 2025-11-22T09:25:08.479200
MEAN_MOTION    = 15.49316883
ECCENTRICITY   = .00012274
INCLINATION    = 53.1602
RA_OF_ASC_NODE = 11.7107
ARG_OF_PERICENTER = 99.5733
MEAN_ANOMALY   = 260.5415

EPHEMERIS_TYPE = 0
CLASSIFICATION_TYPE = U
NORAD_CAT_ID   = 66228
ELEMENT_SET_NO = 999
REV_AT_EPOCH   = 518
BSTAR          = .16729622E-2
MEAN_MOTION_DOT = .93745E-3
MEAN_MOTION_DDOT = 0

CCSDS_OMM_VERS = 2.0
CREATION_DATE  = 
ORIGINATOR     = 

OBJECT_NAME    = STARLINK-35758
OBJECT_ID      = 2025-244Z
CENTER_NAME    = EARTH
REF_FRAME      = TEME
TIME_SYSTEM    = UTC
MEAN_ELEMENT_THEORY = SGP/SGP4

EPOCH          = 2025-11-22T09:24:38.925216
MEAN_MOTION    = 15.49332217
ECCENTRICITY   = .00011205
INCLINATION    = 53.1602
RA_OF_ASC_NODE = 11.7088
ARG_OF_PERICENTER = 82.2050
MEAN_ANOMALY   = 277.9086

EPHEMERIS_TYPE = 0
CLASSIFICATION_TYPE = U
NORAD_CAT_ID   = 66229
ELEMENT_SET_NO = 999
REV_AT_EPOCH   = 518
BSTAR          = .12345985E-2
MEAN_MOTION_DOT = .68879E-3
MEAN_MOTION_DDOT = 0

CCSDS_OMM_VERS = 2.0
CREATION_DATE  = 
ORIGINATOR     = 

OBJECT_NAME    = STARLINK-35736
OBJECT_ID      = 2025-244AA
CENTER_NAME    = EARTH
REF_FRAME      = TEME
TIME_SYSTEM    = UTC
MEAN_ELEMENT_THEORY = SGP/SGP4

EPOCH          = 2025-11-22T10:57:02.927232
MEAN_MOTION    = 15.49331379
ECCENTRICITY   = .00014343
INCLINATION    = 53.1601
RA_OF_ASC_NODE = 11.3975
ARG_OF_PERICENTER = 62.6397
MEAN_ANOMALY   = 297.4758

EPHEMERIS_TYPE = 0
CLASSIFICATION_TYPE = U
NORAD_CAT_ID   = 66230
ELEMENT_SET_NO = 999
REV_AT_EPOCH   = 519
BSTAR          = .1652079E-2
MEAN_MOTION_DOT = .92603E-3
MEAN_MOTION_DDOT = 0

CCSDS_OMM_VERS = 2.0
CREATION_DATE  = 
ORIGINATOR     = 

OBJECT_NAME    = STARLINK-35735
OBJECT_ID      = 2025-244AB
CENTER_NAME    = EARTH
REF_FRAME      = TEME
TIME_SYSTEM    = UTC
MEAN_ELEMENT_THEORY = SGP/SGP4

EPOCH          = 2025-11-22T09:23:38.484960
MEAN_MOTION    = 15.49301805
ECCENTRICITY   = .00024232
INCLINATION    = 53.1602
RA_OF_ASC_NODE = 11.7039
ARG_OF_PERICENTER = 149.9709
MEAN_ANOMALY   = 210.1439

EPHEMERIS_TYPE = 0
CLASSIFICATION_TYPE = U
NORAD_CAT_ID   = 66231
ELEMENT_SET_NO = 999
REV_AT_EPOCH   = 518
BSTAR          = .15155874E-2
MEAN_MOTION_DOT = .84744E-3
MEAN_MOTION_DDOT = 0

CCSDS_OMM_VERS = 2.0
CREATION_DATE  = 
ORIGINATOR     = 

OBJECT_NAME    = STARLINK-35753
OBJECT_ID      = 2025-244AC
CENTER_NAME    = EARTH
REF_FRAME      = TEME
TIME_SYSTEM    = UTC
MEAN_ELEMENT_THEORY = SGP/SGP4

EPOCH          = 2025-11-22T09:23:10.019616
MEAN_MOTION    = 15.49328444
ECCENTRICITY   = .00011147
INCLINATION    = 53.1603
RA_OF_ASC_NODE = 11.7024
ARG_OF_PERICENTER = 64.1058
MEAN_ANOMALY   = 296.0066

EPHEMERIS_TYPE = 0
CLASSIFICATION_TYPE = U
NORAD_CAT_ID   = 66232
ELEMENT_SET_NO = 999
REV_AT_EPOCH   = 518
BSTAR          = .12664239E-2
MEAN_MOTION_DOT = .70673E-3
MEAN_MOTION_DDOT = 0

CCSDS_OMM_VERS = 2.0
CREATION_DATE  = 
ORIGINATOR     = 

OBJECT_NAME    = STARLINK-35626
OBJECT_ID      = 2025-244AD
CENTER_NAME    = EARTH
REF_FRAME      = TEME
TIME_SYSTEM    = UTC
MEAN_ELEMENT_THEORY = SGP/SGP4

EPOCH          = 2025-11-22T09:22:40.216800
MEAN_MOTION    = 15.49334651
ECCENTRICITY   = .00011503
INCLINATION    = 53.1603
RA_OF_ASC_NODE = 11.6999
ARG_OF_PERICENTER = 79.7357
MEAN_ANOMALY   = 280.3782

EPHEMERIS_TYPE = 0
CLASSIFICATION_TYPE = U
NORAD_CAT_ID   = 66233
ELEMENT_SET_NO = 999
REV_AT_EPOCH   = 518
BSTAR          = .13110372E-2
MEAN_MOTION_DOT = .73219E-3
MEAN_MOTION_DDOT = 0

CCSDS_OMM_VERS = 2.0
CREATION_DATE  = 
ORIGINATOR     = 

OBJECT_NAME    = STARLINK-35537
OBJECT_ID      = 2025-245A
CENTER_NAME    = EARTH
REF_FRAME      = TEME
TIME_SYSTEM    = UTC
MEAN_ELEMENT_THEORY = SGP/SGP4

EPOCH          = 2025-11-22T16:00:03.000096
MEAN_MOTION    = 15.43943450
ECCENTRICITY   = .00010307
INCLINATION    = 53.1607
RA_OF_ASC_NODE = 64.2878
ARG_OF_PERICENTER = 63.1254
MEAN_ANOMALY   = 333.7236

EPHEMERIS_TYPE = 0
CLASSIFICATION_TYPE = U
NORAD_CAT_ID   = 66234
ELEMENT_SET_NO = 999
REV_AT_EPOCH   = 487
BSTAR          = -.49832385E-1
MEAN_MOTION_DOT = -.2047452E-1
MEAN_MOTION_DDOT = 0

CCSDS_OMM_VERS = 2.0
CREATION_DATE  = 
ORIGINATOR     = 

OBJECT_NAME    = STARLINK-35541
OBJECT_ID      = 2025-245B
CENTER_NAME    = EARTH
REF_FRAME      = TEME
TIME_SYSTEM    = UTC
MEAN_ELEMENT_THEORY = SGP/SGP4

EPOCH          = 2025-11-22T16:00:03.000096
MEAN_MOTION    = 15.43929669
ECCENTRICITY   = .00009294
INCLINATION    = 53.1608
RA_OF_ASC_NODE = 64.2832
ARG_OF_PERICENTER = 72.6292
MEAN_ANOMALY   = 326.0920

EPHEMERIS_TYPE = 0
CLASSIFICATION_TYPE = U
NORAD_CAT_ID   = 66235
ELEMENT_SET_NO = 999
REV_AT_EPOCH   = 482
BSTAR          = -.49680367E-1
MEAN_MOTION_DOT = -.2040985E-1
MEAN_MOTION_DDOT = 0

CCSDS_OMM_VERS = 2.0
CREATION_DATE  = 
ORIGINATOR     = 

OBJECT_NAME    = STARLINK-35454
OBJECT_ID      = 2025-245C
CENTER_NAME    = EARTH
REF_FRAME      = TEME
TIME_SYSTEM    = UTC
MEAN_ELEMENT_THEORY = SGP/SGP4

EPOCH          = 2025-11-22T16:00:03.000096
MEAN_MOTION    = 15.46775092
ECCENTRICITY   = .00007141
INCLINATION    = 53.1602
RA_OF_ASC_NODE = 64.2608
ARG_OF_PERICENTER = 91.5737
MEAN_ANOMALY   = 318.0532

EPHEMERIS_TYPE = 0
CLASSIFICATION_TYPE = U
NORAD_CAT_ID   = 66236
ELEMENT_SET_NO = 999
REV_AT_EPOCH   = 471
BSTAR          = -.44880816E-1
MEAN_MOTION_DOT = -.2034873E-1
MEAN_MOTION_DDOT = 0

CCSDS_OMM_VERS = 2.0
CREATION_DATE  = 
ORIGINATOR     = 

OBJECT_NAME    = STARLINK-35557
OBJECT_ID      = 2025-245D
CENTER_NAME    = EARTH
REF_FRAME      = TEME
TIME_SYSTEM    = UTC
MEAN_ELEMENT_THEORY = SGP/SGP4

EPOCH          = 2025-11-22T16:00:03.000096
MEAN_MOTION    = 15.46769808
ECCENTRICITY   = .00010069
INCLINATION    = 53.1604
RA_OF_ASC_NODE = 64.2569
ARG_OF_PERICENTER = 54.7837
MEAN_ANOMALY   = 356.7330

EPHEMERIS_TYPE = 0
CLASSIFICATION_TYPE = U
NORAD_CAT_ID   = 66237
ELEMENT_SET_NO = 999
REV_AT_EPOCH   = 487
BSTAR          = -.45212688E-1
MEAN_MOTION_DOT = -.2048088E-1
MEAN_MOTION_DDOT = 0

CCSDS_OMM_VERS = 2.0
CREATION_DATE  = 
ORIGINATOR     = 

OBJECT_NAME    = STARLINK-35556
OBJECT_ID      = 2025-245E
CENTER_NAME    = EARTH
REF_FRAME      = TEME
TIME_SYSTEM    = UTC
MEAN_ELEMENT_THEORY = SGP/SGP4

EPOCH          = 2025-11-22T16:00:03.000096
MEAN_MOTION    = 15.49561272
ECCENTRICITY   = .00009343
INCLINATION    = 53.1608
RA_OF_ASC_NODE = 64.2471
ARG_OF_PERICENTER = 69.0803
MEAN_ANOMALY   = 346.9063

EPHEMERIS_TYPE = 0
CLASSIFICATION_TYPE = U
NORAD_CAT_ID   = 66238
ELEMENT_SET_NO = 999
REV_AT_EPOCH   = 487
BSTAR          = -.3914695E-1
MEAN_MOTION_DOT = -.1966186E-1
MEAN_MOTION_DDOT = 0

CCSDS_OMM_VERS = 2.0
CREATION_DATE  = 
ORIGINATOR     = 

OBJECT_NAME    = STARLINK-35554
OBJECT_ID      = 2025-245F
CENTER_NAME    = EARTH
REF_FRAME      = TEME
TIME_SYSTEM    = UTC
MEAN_ELEMENT_THEORY = SGP/SGP4

EPOCH          = 2025-11-22T16:00:03.000096
MEAN_MOTION    = 15.49548849
ECCENTRICITY   = .00011462
INCLINATION    = 53.1607
RA_OF_ASC_NODE = 64.2431
ARG_OF_PERICENTER = 51.0838
MEAN_ANOMALY   = 6.8224

EPHEMERIS_TYPE = 0
CLASSIFICATION_TYPE = U
NORAD_CAT_ID   = 66239
ELEMENT_SET_NO = 999
REV_AT_EPOCH   = 471
BSTAR          = -.39029924E-1
MEAN_MOTION_DOT = -.1960256E-1
MEAN_MOTION_DDOT = 0

